[{"city": "Dearborn", "name": "Starbucks - 22155 Michigan Ave, Dearborn", "zip_code": "22155"}, {"city": "Auburn Hills", "name": "Starbucks - 2021 N Squirrel Rd, Auburn Hills", "zip_code": "Unknown"}, {"city": "Dearborn", "name": "Starbucks - 12921 Michigan Ave, Dearborn", "zip_code": "12921"}, {"city": "Troy", "name": "Starbucks - 1301 Coolidge Hwy, Troy", "zip_code": "Unknown"}, {"city": "Warren", "name": "Starbucks - 31200 Schoenherr Rd, Warren", "zip_code": "31200"}, {"city": "Livonia", "name": "Starbucks - 12679 Middlebelt Rd, Livonia", "zip_code": "12679"}, {"city": "Novi", "name": "Starbucks - 27212 Beck Rd, Novi", "zip_code": "27212"}, {"city": "Shelby Twp", "name": "Starbucks - Shelby Square, 15069 Hall Rd, Shelby Twp", "zip_code": "15069"}, {"city": "Commerce Charter Twp", "name": "Starbucks - 47060 W Pontiac Trail, Commerce Charter Twp", "zip_code": "47060"}, {"city": "Royal Oak", "name": "Starbucks - 30734 Woodward Ave, Royal Oak", "zip_code": "30734"}, {"city": "Macomb", "name": "Starbucks - 20801 Hall Rd, Macomb", "zip_code": "20801"}, {"city": "Dearborn Heights", "name": "Starbucks - 26650 Ford Rd, Dearborn Heights", "zip_code": "26650"}, {"city": "Farmington Hills", "name": "Starbucks - 27835 Orchard Lake Rd, Farmington Hills", "zip_code": "27835"}, {"city": "Royal Oak", "name": "Starbucks - 31901 Woodward Ave, Royal Oak", "zip_code": "31901"}, {"city": "South Lyon", "name": "Starbucks - 51847 10 Mile Rd, South Lyon", "zip_code": "51847"}, {"city": "Westland", "name": "Starbucks - 35401 Warren Rd, Westland", "zip_code": "35401"}, {"city": "Royal Oak", "name": "Starbucks - 300 S Main St, Royal Oak", "zip_code": "Unknown"}, {"city": "Madison Heights", "name": "Starbucks - 32001 John R Rd, Madison Heights", "zip_code": "32001"}, {"city": "Clinton Twp", "name": "Starbucks - 34725 Utica Rd, Clinton Twp", "zip_code": "34725"}, {"city": "Clinton Twp", "name": "Starbucks - 24798 William P Rosso Hwy, Clinton Twp", "zip_code": "24798"}]